0 FENGYUN 1C DEB
1 30898U 99025AYL 13288.66758068  .00002945  00000-0  76321-3 0  5753
2 30898 099.0816 086.6807 0153775 314.3409 044.8185 14.43831203348329
0 FENGYUN 1C DEB
1 30898U 99025AYL 13290.67718317  .00003142  00000-0  81223-3 0  5768
2 30898 099.0838 088.8318 0154330 308.3328 050.4385 14.43846232348610
0 FENGYUN 1C DEB
1 30898U 99025AYL 13290.67718428  .00004228  00000-0  10727-2 0  5767
2 30898 099.0873 088.8371 0154671 308.2538 050.5296 14.43852583348616
0 FENGYUN 1C DEB
1 30898U 99025AYL 13294.69644227  .00003988  00000-0  10198-2 0  5773
2 30898 099.0835 093.1169 0157484 296.5851 062.0812 14.43885114349192
